[{"OBJECT_NAME":"STARLINK-5717","OBJECT_ID":"2023-020BB","EPOCH":"2026-03-09T02:34:56.232192","MEAN_MOTION":15.02578274,"ECCENTRICITY":0.00015161,"INCLINATION":43.0055,"RA_OF_ASC_NODE":354.6667,"ARG_OF_PERICENTER":275.5402,"MEAN_ANOMALY":84.5267,"EPHEMERIS_TYPE":0,"CLASSIFICATION_TYPE":"U","NORAD_CAT_ID":55618,"ELEMENT_SET_NO":999,"REV_AT_EPOCH":16898,"BSTAR":-0.00062012965,"MEAN_MOTION_DOT":-8.58e-5,"MEAN_MOTION_DDOT":0},{"OBJECT_NAME":"TITAN 4B DEB","OBJECT_ID":"2000-047E","EPOCH":"2026-03-09T14:16:43.154688","MEAN_MOTION":14.95842861,"ECCENTRICITY":0.0051888,"INCLINATION":67.9936,"RA_OF_ASC_NODE":132.6415,"ARG_OF_PERICENTER":76.3882,"MEAN_ANOMALY":356.6211,"EPHEMERIS_TYPE":0,"CLASSIFICATION_TYPE":"U","NORAD_CAT_ID":40528,"ELEMENT_SET_NO":999,"REV_AT_EPOCH":59773,"BSTAR":6.4855e-5,"MEAN_MOTION_DOT":6.21e-6,"MEAN_MOTION_DDOT":0}]
